{
  "type": "FeatureCollection",
  "features": [
    {
      "type": "Feature",
      "properties": {
        "norad_id": 33887,
        "name": "IRIDIUM 33 DEB",
        "group": "iridium-33-debris",
        "lat": 14.866528657212065,
        "lon": 177.0547040635909,
        "alt_km": 764.6337826171857,
        "timestamp": "2025-12-25T03:55:56.751498+00:00",
        "meta_object_name": "IRIDIUM 33 DEB",
        "meta_object_id": "1997-051BG",
        "meta_epoch": "2025-12-24T12:43:39.048384",
        "meta_mean_motion": 14.37231137,
        "meta_eccentricity": 0.0005718,
        "meta_inclination": 86.3043,
        "meta_ra_of_asc_node": 358.3107,
        "meta_arg_of_pericenter": 181.5027,
        "meta_mean_anomaly": 307.6303,
        "meta_ephemeris_type": 0,
        "meta_classification_type": "U",
        "meta_norad_cat_id": 33887,
        "meta_element_set_no": 999,
        "meta_rev_at_epoch": 88334,
        "meta_bstar": 0.00014186,
        "meta_mean_motion_dot": 4.42e-06,
        "meta_mean_motion_ddot": 0,
        "tle_line1": "1 33887U 97051BG  25358.53031306  .00000442  00000+0  14186-3 0  9997",
        "tle_line2": "2 33887  86.3043 358.3107 0005718 181.5027 307.6303 14.37231137883347"
      },
      "geometry": {
        "type": "Point",
        "coordinates": [
          177.0547040635909,
          14.866528657212065
        ]
      }
    },
    {
      "type": "Feature",
      "properties": {
        "norad_id": 33953,
        "name": "IRIDIUM 33 DEB",
        "group": "iridium-33-debris",
        "lat": 68.21132261741344,
        "lon": -140.7183490622252,
        "alt_km": 692.8288674153664,
        "timestamp": "2025-12-25T03:55:56.751509+00:00",
        "meta_object_name": "IRIDIUM 33 DEB",
        "meta_object_id": "1997-051BN",
        "meta_epoch": "2025-12-24T14:55:10.185024",
        "meta_mean_motion": 14.55431147,
        "meta_eccentricity": 0.0017642,
        "meta_inclination": 86.3831,
        "meta_ra_of_asc_node": 48.6214,
        "meta_arg_of_pericenter": 66.5301,
        "meta_mean_anomaly": 85.6941,
        "meta_ephemeris_type": 0,
        "meta_classification_type": "U",
        "meta_norad_cat_id": 33953,
        "meta_element_set_no": 999,
        "meta_rev_at_epoch": 88476,
        "meta_bstar": 0.0011133,
        "meta_mean_motion_dot": 4.868e-05,
        "meta_mean_motion_ddot": 0,
        "tle_line1": "1 33953U 97051BN  25358.62164566  .00004868  00000+0  11133-2 0  9990",
        "tle_line2": "2 33953  86.3831  48.6214 0017642  66.5301  85.6941 14.55431147884761"
      },
      "geometry": {
        "type": "Point",
        "coordinates": [
          -140.7183490622252,
          68.21132261741344
        ]
      }
    },
    {
      "type": "Feature",
      "properties": {
        "norad_id": 33960,
        "name": "IRIDIUM 33 DEB",
        "group": "iridium-33-debris",
        "lat": -0.66387296682916,
        "lon": 103.69850840227112,
        "alt_km": 618.1325541826809,
        "timestamp": "2025-12-25T03:55:56.751520+00:00",
        "meta_object_name": "IRIDIUM 33 DEB",
        "meta_object_id": "1997-051BV",
        "meta_epoch": "2025-12-24T19:16:49.586880",
        "meta_mean_motion": 14.85784996,
        "meta_eccentricity": 0.0007146,
        "meta_inclination": 86.2538,
        "meta_ra_of_asc_node": 283.8251,
        "meta_arg_of_pericenter": 41.1857,
        "meta_mean_anomaly": 12.3181,
        "meta_ephemeris_type": 0,
        "meta_classification_type": "U",
        "meta_norad_cat_id": 33960,
        "meta_element_set_no": 999,
        "meta_rev_at_epoch": 89046,
        "meta_bstar": 0.0031569,
        "meta_mean_motion_dot": 0.0002755,
        "meta_mean_motion_ddot": 0,
        "tle_line1": "1 33960U 97051BV  25358.80335170  .00027550  00000+0  31569-2 0  9997",
        "tle_line2": "2 33960  86.2538 283.8251 0007146  41.1857  12.3181 14.85784996890462"
      },
      "geometry": {
        "type": "Point",
        "coordinates": [
          103.69850840227112,
          -0.66387296682916
        ]
      }
    },
    {
      "type": "Feature",
      "properties": {
        "norad_id": 33966,
        "name": "IRIDIUM 33 DEB",
        "group": "iridium-33-debris",
        "lat": -20.165725220949895,
        "lon": 39.36651324397603,
        "alt_km": 738.1907203224637,
        "timestamp": "2025-12-25T03:55:56.751530+00:00",
        "meta_object_name": "IRIDIUM 33 DEB",
        "meta_object_id": "1997-051CB",
        "meta_epoch": "2025-12-24T15:19:33.977280",
        "meta_mean_motion": 14.49638139,
        "meta_eccentricity": 0.0008698,
        "meta_inclination": 86.391,
        "meta_ra_of_asc_node": 40.9201,
        "meta_arg_of_pericenter": 151.377,
        "meta_mean_anomaly": 329.114,
        "meta_ephemeris_type": 0,
        "meta_classification_type": "U",
        "meta_norad_cat_id": 33966,
        "meta_element_set_no": 999,
        "meta_rev_at_epoch": 88614,
        "meta_bstar": 0.00047089,
        "meta_mean_motion_dot": 1.829e-05,
        "meta_mean_motion_ddot": 0,
        "tle_line1": "1 33966U 97051CB  25358.63858770  .00001829  00000+0  47089-3 0  9996",
        "tle_line2": "2 33966  86.3910  40.9201 0008698 151.3770 329.1140 14.49638139886142"
      },
      "geometry": {
        "type": "Point",
        "coordinates": [
          39.36651324397603,
          -20.165725220949895
        ]
      }
    },
    {
      "type": "Feature",
      "properties": {
        "norad_id": 34071,
        "name": "IRIDIUM 33 DEB",
        "group": "iridium-33-debris",
        "lat": 40.430879723032504,
        "lon": 15.549094408707814,
        "alt_km": 718.3021997494825,
        "timestamp": "2025-12-25T03:55:56.751541+00:00",
        "meta_object_name": "IRIDIUM 33 DEB",
        "meta_object_id": "1997-051CE",
        "meta_epoch": "2025-12-24T19:27:44.466048",
        "meta_mean_motion": 14.49516138,
        "meta_eccentricity": 0.0009871,
        "meta_inclination": 86.345,
        "meta_ra_of_asc_node": 12.5806,
        "meta_arg_of_pericenter": 75.4624,
        "meta_mean_anomaly": 284.7675,
        "meta_ephemeris_type": 0,
        "meta_classification_type": "U",
        "meta_norad_cat_id": 34071,
        "meta_element_set_no": 999,
        "meta_rev_at_epoch": 88509,
        "meta_bstar": 0.00060551,
        "meta_mean_motion_dot": 2.341e-05,
        "meta_mean_motion_ddot": 0,
        "tle_line1": "1 34071U 97051CE  25358.81093132  .00002341  00000+0  60551-3 0  9996",
        "tle_line2": "2 34071  86.3450  12.5806 0009871  75.4624 284.7675 14.49516138885099"
      },
      "geometry": {
        "type": "Point",
        "coordinates": [
          15.549094408707814,
          40.430879723032504
        ]
      }
    },
    {
      "type": "Feature",
      "properties": {
        "norad_id": 34077,
        "name": "IRIDIUM 33 DEB",
        "group": "iridium-33-debris",
        "lat": -31.44053502131994,
        "lon": -131.75124829371168,
        "alt_km": 688.4889462672454,
        "timestamp": "2025-12-25T03:55:56.751551+00:00",
        "meta_object_name": "IRIDIUM 33 DEB",
        "meta_object_id": "1997-051CL",
        "meta_epoch": "2025-12-24T14:32:46.437792",
        "meta_mean_motion": 14.64978801,
        "meta_eccentricity": 0.0008802,
        "meta_inclination": 86.3846,
        "meta_ra_of_asc_node": 46.2792,
        "meta_arg_of_pericenter": 0.5926,
        "meta_mean_anomaly": 151.192,
        "meta_ephemeris_type": 0,
        "meta_classification_type": "U",
        "meta_norad_cat_id": 34077,
        "meta_element_set_no": 999,
        "meta_rev_at_epoch": 88506,
        "meta_bstar": 0.0015196,
        "meta_mean_motion_dot": 8.165e-05,
        "meta_mean_motion_ddot": 0,
        "tle_line1": "1 34077U 97051CL  25358.60609303  .00008165  00000+0  15196-2 0  9996",
        "tle_line2": "2 34077  86.3846  46.2792 0008802   0.5926 151.1920 14.64978801885062"
      },
      "geometry": {
        "type": "Point",
        "coordinates": [
          -131.75124829371168,
          -31.44053502131994
        ]
      }
    },
    {
      "type": "Feature",
      "properties": {
        "norad_id": 34079,
        "name": "IRIDIUM 33 DEB",
        "group": "iridium-33-debris",
        "lat": -38.168768557213696,
        "lon": 0.1556743863933443,
        "alt_km": 620.8227400378319,
        "timestamp": "2025-12-25T03:55:56.751563+00:00",
        "meta_object_name": "IRIDIUM 33 DEB",
        "meta_object_id": "1997-051CN",
        "meta_epoch": "2025-12-24T07:07:42.585888",
        "meta_mean_motion": 14.83824008,
        "meta_eccentricity": 0.00041549,
        "meta_inclination": 86.3775,
        "meta_ra_of_asc_node": 3.4043,
        "meta_arg_of_pericenter": 325.1888,
        "meta_mean_anomaly": 49.2634,
        "meta_ephemeris_type": 0,
        "meta_classification_type": "U",
        "meta_norad_cat_id": 34079,
        "meta_element_set_no": 999,
        "meta_rev_at_epoch": 89149,
        "meta_bstar": 0.0020545843,
        "meta_mean_motion_dot": 0.00017077,
        "meta_mean_motion_ddot": 0,
        "tle_line1": "1 34079U 97051CN  25358.29702067  .00017077  00000+0  20546-2 0  9991",
        "tle_line2": "2 34079  86.3775   3.4043 0004154 325.1888  49.2634 14.83824008891491"
      },
      "geometry": {
        "type": "Point",
        "coordinates": [
          0.1556743863933443,
          -38.168768557213696
        ]
      }
    }
  ]
}